[{"OBJECT_NAME":"APRIZESAT 7","OBJECT_ID":"2013-066A","EPOCH":"2026-03-09T22:14:12.854688","MEAN_MOTION":14.91283287,"ECCENTRICITY":0.00359789,"INCLINATION":97.7595,"RA_OF_ASC_NODE":23.6578,"ARG_OF_PERICENTER":178.0186,"MEAN_ANOMALY":182.1181,"EPHEMERIS_TYPE":0,"CLASSIFICATION_TYPE":"U","NORAD_CAT_ID":39416,"ELEMENT_SET_NO":999,"REV_AT_EPOCH":66643,"BSTAR":0.00016772005,"MEAN_MOTION_DOT":1.633e-5,"MEAN_MOTION_DDOT":0},{"OBJECT_NAME":"STARLINK-34376","OBJECT_ID":"2025-123K","EPOCH":"2026-03-09T17:54:31.083840","MEAN_MOTION":14.98326642,"ECCENTRICITY":0.0003252,"INCLINATION":70.0021,"RA_OF_ASC_NODE":194.4483,"ARG_OF_PERICENTER":264.7713,"MEAN_ANOMALY":95.3075,"EPHEMERIS_TYPE":0,"CLASSIFICATION_TYPE":"U","NORAD_CAT_ID":64300,"ELEMENT_SET_NO":999,"REV_AT_EPOCH":4162,"BSTAR":0.00015354872,"MEAN_MOTION_DOT":1.739e-5,"MEAN_MOTION_DDOT":0}]
